STARLINK-35624          
1 66166U 25240W   26068.30137220  .00024501  00000+0  83634-3 0  9996
2 66166  53.1608  64.2741 0001358  76.9142 283.2010 15.30210705 21935
2025-313BE              
1 67482U 25313BE  26068.69721505  .00077178  00000+0  26504-2 0  9996
2 67482  97.3989 145.3568 0007208 335.3714  24.7181 15.29801687  7972
